LILACSAT-1              
1 42725U 98067ME  18066.52118993  .00015053  00000-0  15785-3 0  9992
2 42725  51.6367 154.8084 0003896 216.2432 143.8299 15.64610752 44579
NSIGHT-1                
1 42726U 98067MF  18066.50554519  .00005750  00000-0  76597-4 0  9991
2 42726  51.6387 159.2309 0005051 212.1530 147.9156 15.59778845 44524
SNUSAT-1                
1 42727U 98067MG  18066.46278650  .00015388  00000-0  16164-3 0  9997
2 42727  51.6351 155.1349 0005495 170.2354 189.8749 15.64540142 44532
QBITO                   
1 42728U 98067MH  18066.23786862  .00019817  00000-0  19827-3 0  9992
2 42728  51.6384 155.1983 0001694 229.1266 130.9583 15.65572976 44350
AALTO-2                 
1 42729U 98067MJ  18066.48559031  .00016991  00000-0  16983-3 0  9996
2 42729  51.6365 153.8214 0001652 231.5652 128.5196 15.65721338 44409
SUSAT                   
1 42730U 98067MK  18066.47155527  .00014932  00000-0  15415-3 0  9991
2 42730  51.6361 154.4683 0001813 223.5398 136.5455 15.65020328 44386
I-INSPIRE II            
1 42731U 98067ML  18066.48367111  .00023859  00000-0  21888-3 0  9996
2 42731  51.6353 152.2683 0004192 151.8446 208.2777 15.67604355 44467
POLYITAN-2-SAU          
1 42732U 98067MM  18065.76212634  .00018736  00000-0  18513-3 0  9995
2 42732  51.6358 157.2147 0004730 149.5998 210.5273 15.65924053 44338
SNUSAT-1B               
1 42733U 98067MN  18066.47298417  .00015465  00000-0  15923-3 0  9996
2 42733  51.6362 154.4691 0004958 156.4886 203.6337 15.65046751 44437
EXALTA-1                
1 42734U 98067MP  18066.48821764  .00021682  00000-0  19900-3 0  9992
2 42734  51.6339 152.2932 0004979 185.9720 174.1217 15.67654546 44419
AOXIANG-1               
1 42735U 98067MQ  18066.52710451  .00012601  00000-0  13938-3 0  9994
2 42735  51.6361 155.5839 0005513 207.8681 152.2019 15.63419450 45790
BEEAGLESAT              
1 42736U 98067MR  18066.46727749  .00014715  00000-0  15625-3 0  9999
2 42736  51.6357 155.1799 0005190 207.7491 152.3227 15.64307989 44487
ATLANTIS                
1 42737U 98067MS  18066.46836248  .00204277  26650-4  61837-3 0  9998
2 42737  51.6233 138.4395 0004795 359.1976   0.9022 15.91708545 44593
SOYUZ-MS 06             
1 42937U 17054A   18058.64801626  .00002063  00000-0  38351-4 0  9992
2 42937  51.6402 204.7914 0003113 133.9046 319.3314 15.54160216101485
PROGRESS-MS 07          
1 42971U 17065A   18065.59065455  .00001776  00000-0  33996-4 0  9996
2 42971  51.6425 170.1795 0002950 154.9602 288.3045 15.54190792102568
SIMPL                   
1 42983U 98067NF  18066.48467038  .00003087  00000-0  51341-4 0  9993
2 42983  51.6430 164.8895 0004228 167.7127 282.4107 15.55496983 20387
ECAMSAT                 
1 43019U 98067NG  18066.52130928  .00004320  00000-0  67974-4 0  9994
2 43019  51.6397 164.5781 0005148 149.8971 210.2317 15.55932059102710
ASTERIA                 
1 43020U 98067NH  18066.48795047  .00009597  00000-0  13746-3 0  9998
2 43020  51.6397 164.3623 0002373 140.3835 219.7331 15.56903799 16632
DELLINGR (RBLE)         
1 43021U 98067NJ  18066.51762523  .00004344  00000-0  67942-4 0  9999
2 43021  51.6395 164.5559 0002290 138.9767 221.1397 15.56081749 16637
TECHEDSAT 6             
1 43026U 98067NK  18066.52675896  .00074968  00000-0  66984-3 0  9994
2 43026  51.6350 160.0974 0002683 326.2935  33.7890 15.67707551 16598
OSIRIS-3U               
1 43027U 98067NL  18066.47172338  .00017490  00000-0  22554-3 0  9994
2 43027  51.6383 163.4984 0002511 117.8707 242.2540 15.59094729 16523
SOYUZ-MS 07             
1 43063U 17081A   18065.59065455  .00001776  00000-0  33996-4 0  9997
2 43063  51.6425 170.1795 0002950 154.9602 288.3045 15.54190792102561
PROGRESS-MS 08          
1 43211U 18019A   18065.59065455  .00001776  00000-0  33996-4 0  9994
2 43211  51.6425 170.1795 0002950 154.9602 288.3045 15.54190792102566
